NORAD_CAT_ID,OBJECT_NAME,OBJECT_TYPE,EPOCH,MEAN_MOTION,ECCENTRICITY,INCLINATION,RA_OF_ASC_NODE,ARG_OF_PERICENTER,MEAN_ANOMALY,BSTAR,MEAN_MOTION_DOT,MEAN_MOTION_DDOT,TLE_LINE0,TLE_LINE1,TLE_LINE2,SEMIMAJOR_AXIS,PERIOD,APOGEE,PERIGEE,DECAYED
53395.0,STARLINK-4534,PAYLOAD,2024-05-19 03:35:52,15.08848199,0.0002475,53.2153,204.9207,83.7948,276.3326,0.00091063,0.00014238,0.0,0 STARLINK-4534,1 53395U 22097H   24140.14991678  .00014238  00000-0  91063-3 0  9991,2 53395  53.2153 204.9207 0002475  83.7948 276.3326 15.08848199 98455,6917.855,95.437,541.432,538.008,0.0
53395.0,STARLINK-4534,PAYLOAD,2024-05-19 11:32:48,15.08828542,0.0001477,53.2154,203.4336,103.383,256.7327,0.0016026,0.00025301,0.0,0 STARLINK-4534,1 53395U 22097H   24140.48112167  .00025301  00000-0  16026-2 0  9994,2 53395  53.2154 203.4336 0001477 103.3830 256.7327 15.08828542 98995,6917.915,95.438,540.802,538.759,0.0
53395.0,STARLINK-4534,PAYLOAD,2024-05-20 11:23:35,15.08862483,0.0001311,53.2145,198.9734,93.7664,266.3478,0.0013173,0.00020752,0.0,0 STARLINK-4534,1 53395U 22097H   24141.47472027  .00020752  00000-0  13173-2 0  9993,2 53395  53.2145 198.9734 0001311  93.7664 266.3478 15.08862483 98658,6917.812,95.436,540.584,538.77,0.0
53395.0,STARLINK-4534,PAYLOAD,2024-05-21 03:17:27,15.08852799,0.0001479,53.2145,195.9996,87.6273,272.4889,0.0011118,0.00017457,0.0,0 STARLINK-4534,1 53395U 22097H   24142.13712178  .00017457  00000-0  11118-2 0  9996,2 53395  53.2145 195.9996 0001479  87.6273 272.4889 15.08852799 98752,6917.841,95.437,540.729,538.683,0.0
53395.0,STARLINK-4534,PAYLOAD,2024-05-21 09:38:59,15.08850054,0.0001128,53.2147,194.8089,100.008,260.104,0.00099289,0.00015554,0.0,0 STARLINK-4534,1 53395U 22097H   24142.40208045  .00015554  00000-0  99289-3 0  9991,2 53395  53.2147 194.8089 0001128 100.0080 260.1040 15.08850054 99286,6917.85,95.437,540.495,538.934,0.0
53395.0,STARLINK-4534,PAYLOAD,2024-05-22 03:08:14,15.08852011,0.0001381,53.2148,191.5387,81.5126,278.6023,0.00055406,8.544e-05,0.0,0 STARLINK-4534,1 53395U 22097H   24143.13071930  .00008544  00000-0  55406-3 0  9997,2 53395  53.2148 191.5387 0001381  81.5126 278.6023 15.08852011 98905,6917.844,95.437,540.664,538.753,0.0
53395.0,STARLINK-4534,PAYLOAD,2024-05-22 09:29:46,15.08854135,0.0001339,53.215,190.3498,82.7207,277.3938,0.0004447,6.799e-05,0.0,0 STARLINK-4534,1 53395U 22097H   24143.39567659  .00006799  00000-0  44470-3 0  9992,2 53395  53.2150 190.3498 0001339  82.7207 277.3938 15.08854135 99433,6917.837,95.437,540.628,538.776,0.0
53395.0,STARLINK-4534,PAYLOAD,2024-05-23 02:59:01,15.08845378,0.0001558,53.2146,187.0824,64.3347,295.7805,9.931e-05,1.293e-05,0.0,0 STARLINK-4534,1 53395U 22097H   24144.12431734  .00001293  00000-0  99310-4 0  9996,2 53395  53.2146 187.0824 0001558  64.3347 295.7805 15.08845378 99052,6917.864,95.437,540.807,538.651,0.0
53395.0,STARLINK-4534,PAYLOAD,2024-05-23 09:20:33,15.08841912,0.0001478,53.2149,185.8896,70.5049,289.6103,6.0293e-05,6.72e-06,0.0,0 STARLINK-4534,1 53395U 22097H   24144.38927931  .00000672  00000-0  60293-4 0  9991,2 53395  53.2149 185.8896 0001478  70.5049 289.6103 15.08841912 99580,6917.875,95.437,540.762,538.717,0.0
53395.0,STARLINK-4534,PAYLOAD,2024-05-24 12:22:06,15.0885105,0.0001497,53.2149,180.8336,91.396,268.7204,0.00015051,2.109e-05,0.0,0 STARLINK-4534,1 53395U 22097H   24145.51535016  .00002109  00000-0  15051-3 0  9994,2 53395  53.2149 180.8336 0001497  91.3960 268.7204 15.08851050 99267,6917.847,95.437,540.747,538.676,0.0
53395.0,STARLINK-4534,PAYLOAD,2024-05-25 05:51:22,15.08828486,0.0001496,53.2154,177.5557,109.5001,250.6153,-3.6639e-05,-8.71e-06,0.0,0 STARLINK-4534,1 53395U 22097H   24146.24400804 -.00000871  00000-0 -36639-4 0  9993,2 53395  53.2154 177.5557 0001496 109.5001 250.6153 15.08828486 99370,6917.916,95.438,540.816,538.746,0.0
53395.0,STARLINK-4534,PAYLOAD,2024-05-25 09:02:09,15.08814096,0.000144,53.2162,176.9684,95.9118,264.2038,-8.7978e-05,-1.687e-05,0.0,0 STARLINK-4534,1 53395U 22097H   24146.37650047 -.00001687  00000-0 -87978-4 0  9991,2 53395  53.2162 176.9684 0001440  95.9118 264.2038 15.08814096 99396,6917.96,95.439,540.821,538.828,0.0
53395.0,STARLINK-4534,PAYLOAD,2024-05-26 02:31:24,15.08824155,0.0001382,53.2158,173.6959,97.1729,262.9421,-0.00011476,-2.113e-05,0.0,0 STARLINK-4534,1 53395U 22097H   24147.10514231 -.00002113  00000-0 -11476-3 0  9991,2 53395  53.2158 173.6959 0001382  97.1729 262.9421 15.08824155 99508,6917.929,95.439,540.75,538.838,0.0
53395.0,STARLINK-4534,PAYLOAD,2024-05-26 08:52:56,15.08828242,0.0001455,53.2158,172.5063,100.7823,259.3333,-6.8177e-05,-1.372e-05,0.0,0 STARLINK-4534,1 53395U 22097H   24147.37010185 -.00001372  00000-0 -68177-4 0  9996,2 53395  53.2158 172.5063 0001455 100.7823 259.3333 15.08828242100033,6917.916,95.438,540.788,538.775,0.0
53395.0,STARLINK-4534,PAYLOAD,2024-05-26 18:25:15,15.08827315,0.0001928,53.2168,170.7338,130.5951,229.5209,-3.0713e-05,-7.77e-06,0.0,0 STARLINK-4534,1 53395U 22097H   24147.76754449 -.00000777  00000-0 -30713-4 0  9990,2 53395  53.2168 170.7338 0001928 130.5951 229.5209 15.08827315100094,6917.919,95.438,541.118,538.45,0.0
53395.0,STARLINK-4534,PAYLOAD,2024-05-27 05:32:53,15.08872178,0.0001799,53.2178,168.6568,131.1754,228.9393,0.00084565,0.00013208,0.0,0 STARLINK-4534,1 53395U 22097H   24148.23117993  .00013208  00000-0  84565-3 0  9994,2 53395  53.2178 168.6568 0001799 131.1754 228.9393 15.08872178 99675,6917.782,95.436,540.892,538.403,0.0
53395.0,STARLINK-4534,PAYLOAD,2024-05-27 10:19:07,15.08827108,0.0001453,53.216,167.7482,95.1842,264.9316,0.00023502,3.453e-05,0.0,0 STARLINK-4534,1 53395U 22097H   24148.42994547  .00003453  00000-0  23502-3 0  9998,2 53395  53.2160 167.7482 0001453  95.1842 264.9316 15.08827108 99707,6917.92,95.438,540.79,538.78,0.0
53395.0,STARLINK-4534,PAYLOAD,2024-05-27 18:16:03,15.08829411,0.0001461,53.2161,166.2616,94.0238,266.0921,0.00021933,3.203e-05,0.0,0 STARLINK-4534,1 53395U 22097H   24148.76114730  .00003203  00000-0  21933-3 0  9992,2 53395  53.2161 166.2616 0001461  94.0238 266.0921 15.08829411100243,6917.913,95.438,540.788,538.767,0.0
53395.0,STARLINK-4534,PAYLOAD,2024-05-28 05:23:44,15.08840961,0.0001389,53.2156,164.1801,98.2157,261.8993,0.00021133,3.077e-05,0.0,0 STARLINK-4534,1 53395U 22097H   24149.22482250  .00003077  00000-0  21133-3 0  9990,2 53395  53.2156 164.1801 0001389  98.2157 261.8993 15.08840961 99821,6917.877,95.437,540.703,538.782,0.0
53395.0,STARLINK-4534,PAYLOAD,2024-05-28 08:34:30,15.08843477,0.00014,53.2154,163.5851,98.677,261.438,0.00024337,3.588e-05,0.0,0 STARLINK-4534,1 53395U 22097H   24149.35730169  .00003588  00000-0  24337-3 0  9995,2 53395  53.2154 163.5851 0001400  98.6770 261.4380 15.08843477100336,6917.87,95.437,540.703,538.766,0.0
53395.0,STARLINK-4534,PAYLOAD,2024-05-29 10:00:39,15.08856592,0.0001403,53.2154,158.827,100.415,259.7001,0.00017975,2.575e-05,0.0,0 STARLINK-4534,1 53395U 22097H   24150.41712874  .00002575  00000-0  17975-3 0  9992,2 53395  53.2154 158.8270 0001403 100.4150 259.7001 15.08856592100001,6917.83,95.437,540.665,538.724,0.0
53395.0,STARLINK-4534,PAYLOAD,2024-05-30 05:05:17,15.08852268,0.0001398,53.2137,155.2558,111.6479,248.4662,4.0771e-05,3.61e-06,0.0,0 STARLINK-4534,1 53395U 22097H   24151.21200562  .00000361  00000-0  40771-4 0  9999,2 53395  53.2137 155.2558 0001398 111.6479 248.4662 15.08852268100120,6917.843,95.437,540.675,538.741,0.0
53395.0,STARLINK-4534,PAYLOAD,2024-05-30 09:51:26,15.08852367,0.0001393,53.2148,154.3645,109.4006,250.7137,3.5738e-05,2.81e-06,0.0,0 STARLINK-4534,1 53395U 22097H   24151.41072604  .00000281  00000-0  35738-4 0  9993,2 53395  53.2148 154.3645 0001393 109.4006 250.7137 15.08852367100645,6917.843,95.437,540.671,538.744,0.0
53395.0,STARLINK-4534,PAYLOAD,2024-05-31 09:42:13,15.08850853,0.0001607,53.2162,149.9052,109.3292,250.7873,1.9303e-05,1.9e-07,0.0,0 STARLINK-4534,1 53395U 22097H   24152.40431987  .00000019  00000-0  19303-4 0  9995,2 53395  53.2162 149.9052 0001607 109.3292 250.7873 15.08850853100305,6917.847,95.437,540.824,538.601,0.0
53395.0,STARLINK-4534,PAYLOAD,2024-06-01 04:46:51,15.08838334,0.0001471,53.2161,146.3367,98.8657,261.2501,-2.2431e-05,-6.45e-06,0.0,0 STARLINK-4534,1 53395U 22097H   24153.19920707 -.00000645  00000-0 -22431-4 0  9998,2 53395  53.2161 146.3367 0001471  98.8657 261.2501 15.08838334100428,6917.885,95.438,540.768,538.733,0.0
53395.0,STARLINK-4534,PAYLOAD,2024-06-01 06:22:14,15.08838178,0.0001422,53.2159,146.0408,93.9745,266.141,-1.8416e-05,-5.81e-06,0.0,0 STARLINK-4534,1 53395U 22097H   24153.26544720 -.00000581  00000-0 -18416-4 0  9990,2 53395  53.2159 146.0408 0001422  93.9745 266.1410 15.08838178100922,6917.886,95.438,540.735,538.767,0.0
53395.0,STARLINK-4534,PAYLOAD,2024-06-02 06:13:01,15.0884314,0.0001377,53.216,141.5808,93.2241,266.8909,4.4012e-05,4.13e-06,0.0,0 STARLINK-4534,1 53395U 22097H   24154.25904214  .00000413  00000-0  44012-4 0  9991,2 53395  53.2160 141.5808 0001377  93.2241 266.8909 15.08843140100588,6917.871,95.437,540.688,538.783,0.0
53395.0,STARLINK-4534,PAYLOAD,2024-06-02 15:45:20,15.08836649,0.0001358,53.2162,139.797,92.088,268.0268,3.6912e-05,3e-06,0.0,0 STARLINK-4534,1 53395U 22097H   24154.65648705  .00000300  00000-0  36912-4 0  9990,2 53395  53.2162 139.7970 0001358  92.0880 268.0268 15.08836649100649,6917.891,95.438,540.695,538.816,0.0
53395.0,STARLINK-4534,PAYLOAD,2024-06-03 04:28:26,15.08829672,0.0001436,53.2172,137.4193,95.2027,264.9129,1.6607e-05,-2.4e-07,0.0,0 STARLINK-4534,1 53395U 22097H   24155.18641514 -.00000024  00000-0  16607-4 0  9993,2 53395  53.2172 137.4193 0001436  95.2027 264.9129 15.08829672100725,6917.912,95.438,540.77,538.784,0.0
53395.0,STARLINK-4534,PAYLOAD,2024-06-03 21:57:40,15.08838043,0.000139,53.2169,134.1474,91.7772,268.3379,2.5207e-05,1.13e-06,0.0,0 STARLINK-4534,1 53395U 22097H   24155.91505286  .00000113  00000-0  25207-4 0  9993,2 53395  53.2169 134.1474 0001390  91.7772 268.3379 15.08838043101328,6917.886,95.438,540.713,538.79,0.0
